[{"OBJECT_NAME":"NIMIQ 2","OBJECT_ID":"2002-062A","EPOCH":"2026-03-03T13:33:18.771840","MEAN_MOTION":1.00272299,"ECCENTRICITY":0.0006535,"INCLINATION":9.2028,"RA_OF_ASC_NODE":57.9921,"ARG_OF_PERICENTER":287.9362,"MEAN_ANOMALY":269.526,"EPHEMERIS_TYPE":0,"CLASSIFICATION_TYPE":"U","NORAD_CAT_ID":27632,"ELEMENT_SET_NO":999,"REV_AT_EPOCH":4312,"BSTAR":0,"MEAN_MOTION_DOT":-7.9e-7,"MEAN_MOTION_DDOT":0},{"OBJECT_NAME":"USA 167","OBJECT_ID":"2003-008A","EPOCH":"2026-03-03T13:29:41.619264","MEAN_MOTION":1.00271109,"ECCENTRICITY":0.000591,"INCLINATION":10.7526,"RA_OF_ASC_NODE":44.3412,"ARG_OF_PERICENTER":289.5754,"MEAN_ANOMALY":268.0856,"EPHEMERIS_TYPE":0,"CLASSIFICATION_TYPE":"U","NORAD_CAT_ID":27691,"ELEMENT_SET_NO":999,"REV_AT_EPOCH":571,"BSTAR":0,"MEAN_MOTION_DOT":-5.0e-8,"MEAN_MOTION_DDOT":0},{"OBJECT_NAME":"USA 169 (MILSTAR-2 4)","OBJECT_ID":"2003-012A","EPOCH":"2026-03-03T18:13:06.957120","MEAN_MOTION":1.00272637,"ECCENTRICITY":0.0100396,"INCLINATION":12.1903,"RA_OF_ASC_NODE":30.6845,"ARG_OF_PERICENTER":3.494,"MEAN_ANOMALY":192.7723,"EPHEMERIS_TYPE":0,"CLASSIFICATION_TYPE":"U","NORAD_CAT_ID":27711,"ELEMENT_SET_NO":999,"REV_AT_EPOCH":3189,"BSTAR":0,"MEAN_MOTION_DOT":-2.75e-6,"MEAN_MOTION_DDOT":0},{"OBJECT_NAME":"ASIASAT 4","OBJECT_ID":"2003-014A","EPOCH":"2026-03-03T11:21:11.934720","MEAN_MOTION":1.00269685,"ECCENTRICITY":0.00026701,"INCLINATION":4.4338,"RA_OF_ASC_NODE":77.0787,"ARG_OF_PERICENTER":268.6674,"MEAN_ANOMALY":133.3279,"EPHEMERIS_TYPE":0,"CLASSIFICATION_TYPE":"U","NORAD_CAT_ID":27718,"ELEMENT_SET_NO":999,"REV_AT_EPOCH":4424,"BSTAR":0,"MEAN_MOTION_DOT":-2.35e-6,"MEAN_MOTION_DDOT":0},{"OBJECT_NAME":"HELLAS-SAT 2","OBJECT_ID":"2003-020A","EPOCH":"2026-03-03T07:10:52.119840","MEAN_MOTION":1.00272204,"ECCENTRICITY":0.00079721,"INCLINATION":7.0917,"RA_OF_ASC_NODE":69.1462,"ARG_OF_PERICENTER":242.0257,"MEAN_ANOMALY":307.5766,"EPHEMERIS_TYPE":0,"CLASSIFICATION_TYPE":"U","NORAD_CAT_ID":27811,"ELEMENT_SET_NO":999,"REV_AT_EPOCH":4178,"BSTAR":0,"MEAN_MOTION_DOT":-9.6e-7,"MEAN_MOTION_DDOT":0},{"OBJECT_NAME":"THURAYA-2","OBJECT_ID":"2003-026A","EPOCH":"2026-03-03T12:34:23.823840","MEAN_MOTION":1.00274079,"ECCENTRICITY":0.0003399,"INCLINATION":8.6761,"RA_OF_ASC_NODE":32.3844,"ARG_OF_PERICENTER":312.7795,"MEAN_ANOMALY":48.7348,"EPHEMERIS_TYPE":0,"CLASSIFICATION_TYPE":"U","NORAD_CAT_ID":27825,"ELEMENT_SET_NO":999,"REV_AT_EPOCH":8329,"BSTAR":0,"MEAN_MOTION_DOT":1.15e-6,"MEAN_MOTION_DDOT":0},{"OBJECT_NAME":"OPTUS C1","OBJECT_ID":"2003-028B","EPOCH":"2026-03-03T18:14:21.838272","MEAN_MOTION":1.0027142,"ECCENTRICITY":0.0006213,"INCLINATION":6.6263,"RA_OF_ASC_NODE":70.6849,"ARG_OF_PERICENTER":274.5894,"MEAN_ANOMALY":245.5918,"EPHEMERIS_TYPE":0,"CLASSIFICATION_TYPE":"U","NORAD_CAT_ID":27831,"ELEMENT_SET_NO":999,"REV_AT_EPOCH":5200,"BSTAR":0,"MEAN_MOTION_DOT":-1.62e-6,"MEAN_MOTION_DDOT":0},{"OBJECT_NAME":"USA 170","OBJECT_ID":"2003-040A","EPOCH":"2026-03-03T15:54:05.280768","MEAN_MOTION":1.00276494,"ECCENTRICITY":0.0001494,"INCLINATION":10.2778,"RA_OF_ASC_NODE":48.9334,"ARG_OF_PERICENTER":291.5619,"MEAN_ANOMALY":83.6744,"EPHEMERIS_TYPE":0,"CLASSIFICATION_TYPE":"U","NORAD_CAT_ID":27875,"ELEMENT_SET_NO":999,"REV_AT_EPOCH":3194,"BSTAR":0,"MEAN_MOTION_DOT":1.17e-6,"MEAN_MOTION_DDOT":0},{"OBJECT_NAME":"GALAXY 13 (HORIZONS-1)","OBJECT_ID":"2003-044A","EPOCH":"2026-03-03T16:47:07.697760","MEAN_MOTION":1.00272251,"ECCENTRICITY":0.0002176,"INCLINATION":1.145,"RA_OF_ASC_NODE":85.3119,"ARG_OF_PERICENTER":259.7238,"MEAN_ANOMALY":278.1866,"EPHEMERIS_TYPE":0,"CLASSIFICATION_TYPE":"U","NORAD_CAT_ID":27954,"ELEMENT_SET_NO":999,"REV_AT_EPOCH":4551,"BSTAR":0,"MEAN_MOTION_DOT":1.19e-6,"MEAN_MOTION_DDOT":0},{"OBJECT_NAME":"YAMAL 202","OBJECT_ID":"2003-053A","EPOCH":"2026-03-03T19:59:09.582720","MEAN_MOTION":1.00272155,"ECCENTRICITY":0.0005629,"INCLINATION":6.0764,"RA_OF_ASC_NODE":72.224,"ARG_OF_PERICENTER":240.4243,"MEAN_ANOMALY":312.2142,"EPHEMERIS_TYPE":0,"CLASSIFICATION_TYPE":"U","NORAD_CAT_ID":28089,"ELEMENT_SET_NO":999,"REV_AT_EPOCH":8164,"BSTAR":0,"MEAN_MOTION_DOT":-9.1e-7,"MEAN_MOTION_DDOT":0},{"OBJECT_NAME":"UFO 11 (USA 174)","OBJECT_ID":"2003-057A","EPOCH":"2026-03-03T15:50:32.140608","MEAN_MOTION":1.00272321,"ECCENTRICITY":0.000351,"INCLINATION":8.8435,"RA_OF_ASC_NODE":34.3299,"ARG_OF_PERICENTER":290.9209,"MEAN_ANOMALY":149.2261,"EPHEMERIS_TYPE":0,"CLASSIFICATION_TYPE":"U","NORAD_CAT_ID":28117,"ELEMENT_SET_NO":999,"REV_AT_EPOCH":8139,"BSTAR":0,"MEAN_MOTION_DOT":-1.13e-6,"MEAN_MOTION_DDOT":0},{"OBJECT_NAME":"USA 176 (DSP 22)","OBJECT_ID":"2004-004A","EPOCH":"2026-03-03T09:56:38.689152","MEAN_MOTION":1.00272643,"ECCENTRICITY":0.00026751,"INCLINATION":11.9192,"RA_OF_ASC_NODE":26.8414,"ARG_OF_PERICENTER":274.6937,"MEAN_ANOMALY":272.3744,"EPHEMERIS_TYPE":0,"CLASSIFICATION_TYPE":"U","NORAD_CAT_ID":28158,"ELEMENT_SET_NO":999,"REV_AT_EPOCH":3187,"BSTAR":0,"MEAN_MOTION_DOT":-1.69e-6,"MEAN_MOTION_DDOT":0},{"OBJECT_NAME":"ABS-4 (MOBISAT-1)","OBJECT_ID":"2004-007A","EPOCH":"2026-03-03T17:18:04.044096","MEAN_MOTION":1.00271742,"ECCENTRICITY":0.0005364,"INCLINATION":5.7744,"RA_OF_ASC_NODE":73.291,"ARG_OF_PERICENTER":272.5165,"MEAN_ANOMALY":136.1521,"EPHEMERIS_TYPE":0,"CLASSIFICATION_TYPE":"U","NORAD_CAT_ID":28184,"ELEMENT_SET_NO":999,"REV_AT_EPOCH":5128,"BSTAR":0,"MEAN_MOTION_DOT":2.8e-7,"MEAN_MOTION_DDOT":0},{"OBJECT_NAME":"EUTELSAT 139 WEST A","OBJECT_ID":"2004-008A","EPOCH":"2026-03-03T19:01:39.806112","MEAN_MOTION":1.00833401,"ECCENTRICITY":0.0001093,"INCLINATION":5.5616,"RA_OF_ASC_NODE":73.273,"ARG_OF_PERICENTER":39.906,"MEAN_ANOMALY":295.1791,"EPHEMERIS_TYPE":0,"CLASSIFICATION_TYPE":"U","NORAD_CAT_ID":28187,"ELEMENT_SET_NO":999,"REV_AT_EPOCH":8029,"BSTAR":0,"MEAN_MOTION_DOT":-1.98e-6,"MEAN_MOTION_DDOT":0},{"OBJECT_NAME":"AMC-11","OBJECT_ID":"2004-017A","EPOCH":"2026-03-03T15:15:31.476672","MEAN_MOTION":1.00271978,"ECCENTRICITY":0.0003207,"INCLINATION":0.0394,"RA_OF_ASC_NODE":79.1201,"ARG_OF_PERICENTER":268.3588,"MEAN_ANOMALY":291.6831,"EPHEMERIS_TYPE":0,"CLASSIFICATION_TYPE":"U","NORAD_CAT_ID":28252,"ELEMENT_SET_NO":999,"REV_AT_EPOCH":7980,"BSTAR":0,"MEAN_MOTION_DOT":-6.4e-7,"MEAN_MOTION_DDOT":0},{"OBJECT_NAME":"INTELSAT 10-02","OBJECT_ID":"2004-022A","EPOCH":"2026-03-03T15:46:58.463904","MEAN_MOTION":1.00272396,"ECCENTRICITY":0.0001059,"INCLINATION":0.0151,"RA_OF_ASC_NODE":123.2246,"ARG_OF_PERICENTER":255.4458,"MEAN_ANOMALY":18.4711,"EPHEMERIS_TYPE":0,"CLASSIFICATION_TYPE":"U","NORAD_CAT_ID":28358,"ELEMENT_SET_NO":999,"REV_AT_EPOCH":7949,"BSTAR":0,"MEAN_MOTION_DOT":-2.5e-7,"MEAN_MOTION_DDOT":0},{"OBJECT_NAME":"ANIK F2","OBJECT_ID":"2004-027A","EPOCH":"2026-03-03T15:15:31.476672","MEAN_MOTION":1.00272256,"ECCENTRICITY":0.0002982,"INCLINATION":3.0121,"RA_OF_ASC_NODE":80.8648,"ARG_OF_PERICENTER":295.5755,"MEAN_ANOMALY":262.7153,"EPHEMERIS_TYPE":0,"CLASSIFICATION_TYPE":"U","NORAD_CAT_ID":28378,"ELEMENT_SET_NO":999,"REV_AT_EPOCH":4020,"BSTAR":0,"MEAN_MOTION_DOT":-6.3e-7,"MEAN_MOTION_DDOT":0}]
