NIMIQ 2                 
1 27632U 02062A   26062.56480060 -.00000079  00000+0  00000+0 0  9990
2 27632   9.2028  57.9921 0006535 287.9362 269.5260  1.00272299 43124
USA 167                 
1 27691U 03008A   26062.56228726 -.00000005  00000+0  00000+0 0  9994
2 27691  10.7526  44.3412 0005910 289.5754 268.0856  1.00271109  5710
USA 169 (MILSTAR-2 4)   
1 27711U 03012A   26062.75910830 -.00000275  00000+0  00000+0 0  9996
2 27711  12.1903  30.6845 0100396   3.4940 192.7723  1.00272637 31891
ASIASAT 4               
1 27718U 03014A   26062.47305480 -.00000235  00000+0  00000+0 0  9999
2 27718   4.4338  77.0787 0002670 268.6674 133.3279  1.00269685 44248
HELLAS-SAT 2            
1 27811U 03020A   26062.29921435 -.00000096  00000+0  00000+0 0  9999
2 27811   7.0917  69.1462 0007972 242.0257 307.5766  1.00272204 41782
THURAYA-2               
1 27825U 03026A   26062.52388685  .00000115  00000+0  00000+0 0  9991
2 27825   8.6761  32.3844 0003399 312.7795  48.7348  1.00274079 83292
OPTUS C1                
1 27831U 03028B   26062.75997498 -.00000162  00000+0  00000+0 0  9996
2 27831   6.6263  70.6849 0006213 274.5894 245.5918  1.00271420 52009
USA 170                 
1 27875U 03040A   26062.66256112  .00000117  00000+0  00000+0 0  9998
2 27875  10.2778  48.9334 0001494 291.5619  83.6744  1.00276494 31940
GALAXY 13 (HORIZONS-1)  
1 27954U 03044A   26062.69939465  .00000119  00000+0  00000+0 0  9994
2 27954   1.1450  85.3119 0002176 259.7238 278.1866  1.00272251 45512
YAMAL 202               
1 28089U 03053A   26062.83274980 -.00000091  00000+0  00000+0 0  9994
2 28089   6.0764  72.2240 0005629 240.4243 312.2142  1.00272155 81647
UFO 11 (USA 174)        
1 28117U 03057A   26062.66009422 -.00000113  00000+0  00000+0 0  9993
2 28117   8.8435  34.3299 0003510 290.9209 149.2261  1.00272321 81393
USA 176 (DSP 22)        
1 28158U 04004A   26062.41433668 -.00000169  00000+0  00000+0 0  9998
2 28158  11.9192  26.8414 0002675 274.6937 272.3744  1.00272643 31875
ABS-4 (MOBISAT-1)       
1 28184U 04007A   26062.72088014  .00000028  00000+0  00000+0 0  9998
2 28184   5.7744  73.2910 0005364 272.5165 136.1521  1.00271742 51289
EUTELSAT 139 WEST A     
1 28187U 04008A   26062.79282183 -.00000198  00000+0  00000+0 0  9991
2 28187   5.5616  73.2730 0001093  39.9060 295.1791  1.00833401 80296
AMC-11                  
1 28252U 04017A   26062.63578098 -.00000064  00000+0  00000+0 0  9992
2 28252   0.0394  79.1201 0003207 268.3588 291.6831  1.00271978 79808
INTELSAT 10-02          
1 28358U 04022A   26062.65762111 -.00000025  00000+0  00000+0 0  9995
2 28358   0.0151 123.2246 0001059 255.4458  18.4711  1.00272396 79494
ANIK F2                 
1 28378U 04027A   26062.63578098 -.00000063  00000+0  00000+0 0  9991
2 28378   3.0121  80.8648 0002982 295.5755 262.7153  1.00272256 40207
